{
  "type": "FeatureCollection",
  "features": [
    {
      "type": "Feature",
      "properties": {
        "norad_id": 64903,
        "name": "CO3D 1",
        "group": "resource",
        "lat": 19.354946392580274,
        "lon": 69.20874772725494,
        "alt_km": 505.1566007356396,
        "timestamp": "2025-12-21T16:47:54.386980+00:00",
        "meta_object_name": "CO3D 1",
        "meta_object_id": "2025-156E",
        "meta_epoch": "2025-12-21T11:58:24.943584",
        "meta_mean_motion": 15.20207958,
        "meta_eccentricity": 8.94e-05,
        "meta_inclination": 97.4341,
        "meta_ra_of_asc_node": 71.6395,
        "meta_arg_of_pericenter": 80.1399,
        "meta_mean_anomaly": 279.9937,
        "meta_ephemeris_type": 0,
        "meta_classification_type": "U",
        "meta_norad_cat_id": 64903,
        "meta_element_set_no": 999,
        "meta_rev_at_epoch": 2253,
        "meta_bstar": 0.00022922,
        "meta_mean_motion_dot": 4.898e-05,
        "meta_mean_motion_ddot": 0,
        "tle_line1": "1 64903U 25156E   25355.49889981  .00004898  00000+0  22922-3 0  9995",
        "tle_line2": "2 64903  97.4341  71.6395 0000894  80.1399 279.9937 15.20207958 22531"
      },
      "geometry": {
        "type": "Point",
        "coordinates": [
          69.20874772725494,
          19.354946392580274
        ]
      }
    },
    {
      "type": "Feature",
      "properties": {
        "norad_id": 66514,
        "name": "SENTINEL-6B",
        "group": "resource",
        "lat": 24.53376661629113,
        "lon": 155.52176522746893,
        "alt_km": 1336.9740620482635,
        "timestamp": "2025-12-21T16:47:54.386990+00:00",
        "meta_object_name": "SENTINEL-6B",
        "meta_object_id": "2025-264A",
        "meta_epoch": "2025-12-12T06:01:21.427680",
        "meta_mean_motion": 12.81479575,
        "meta_eccentricity": 0.0007848,
        "meta_inclination": 66.0385,
        "meta_ra_of_asc_node": 163.4531,
        "meta_arg_of_pericenter": 270.1375,
        "meta_mean_anomaly": 89.8741,
        "meta_ephemeris_type": 0,
        "meta_classification_type": "U",
        "meta_norad_cat_id": 66514,
        "meta_element_set_no": 999,
        "meta_rev_at_epoch": 322,
        "meta_bstar": 0.00018195,
        "meta_mean_motion_dot": -1.9e-07,
        "meta_mean_motion_ddot": 0,
        "tle_line1": "1 66514U 25264A   25346.25094245 -.00000019  00000+0  18195-3 0  9999",
        "tle_line2": "2 66514  66.0385 163.4531 0007848 270.1375  89.8741 12.81479575  3220"
      },
      "geometry": {
        "type": "Point",
        "coordinates": [
          155.52176522746893,
          24.53376661629113
        ]
      }
    }
  ]
}